{
"type": "FeatureCollection",
"name": "field_photo_locations",
"features": [
{ "type": "Feature", "properties": { "photo_group": "logger-photos", "description": "S1T, PB2", "filename": "IMG_7377.JPG", "relative_path": "biochar_app/data-raw/field-mapping/logger-photos/2026-05-31/IMG_7377.JPG", "pakbus_id": "PB2", "altitude_m": 1401.318729, "datetime_original": "2026:05:31 11:35:21", "include_in_map": "TRUE", "notes": "", "feature_id": "S1T" }, "geometry": { "type": "Point", "coordinates": [ -108.697244444443996, 39.1797527777778 ] } },
{ "type": "Feature", "properties": { "photo_group": "logger-photos", "description": "S1M PB3", "filename": "IMG_7378.JPG", "relative_path": "biochar_app/data-raw/field-mapping/logger-photos/2026-05-31/IMG_7378.JPG", "pakbus_id": "PB3", "altitude_m": 1401.509823, "datetime_original": "2026:05:31 11:36:04", "include_in_map": "TRUE", "notes": "", "feature_id": "S1M" }, "geometry": { "type": "Point", "coordinates": [ -108.697244444443996, 39.179436111111102 ] } },
{ "type": "Feature", "properties": { "photo_group": "logger-photos", "description": "S1B, PB4", "filename": "IMG_7379.JPG", "relative_path": "biochar_app/data-raw/field-mapping/logger-photos/2026-05-31/IMG_7379.JPG", "pakbus_id": "PB4", "altitude_m": 1401.31074, "datetime_original": "2026:05:31 11:36:52", "include_in_map": "TRUE", "notes": "", "feature_id": "S1B" }, "geometry": { "type": "Point", "coordinates": [ -108.697244444443996, 39.179119444444403 ] } },
{ "type": "Feature", "properties": { "photo_group": "logger-photos", "description": "S2T, PB5", "filename": "IMG_7380.JPG", "relative_path": "biochar_app/data-raw/field-mapping/logger-photos/2026-05-31/IMG_7380.JPG", "pakbus_id": "PB5", "altitude_m": 1401.922231, "datetime_original": "2026:05:31 11:38:10", "include_in_map": "TRUE", "notes": "", "feature_id": "S2T" }, "geometry": { "type": "Point", "coordinates": [ -108.697113888889007, 39.179755555555602 ] } },
{ "type": "Feature", "properties": { "photo_group": "logger-photos", "description": "S2M, PB6", "filename": "IMG_7381.JPG", "relative_path": "biochar_app/data-raw/field-mapping/logger-photos/2026-05-31/IMG_7381.JPG", "pakbus_id": "PB6", "altitude_m": 1402.075721, "datetime_original": "2026:05:31 11:38:51", "include_in_map": "TRUE", "notes": "", "feature_id": "S2M" }, "geometry": { "type": "Point", "coordinates": [ -108.697113888889007, 39.179425 ] } },
{ "type": "Feature", "properties": { "photo_group": "logger-photos", "description": "S2B, PB7", "filename": "IMG_7382.JPG", "relative_path": "biochar_app/data-raw/field-mapping/logger-photos/2026-05-31/IMG_7382.JPG", "pakbus_id": "PB7", "altitude_m": 1401.923538, "datetime_original": "2026:05:31 11:39:54", "include_in_map": "TRUE", "notes": "", "feature_id": "S2B" }, "geometry": { "type": "Point", "coordinates": [ -108.697113888889007, 39.179111111111098 ] } },
{ "type": "Feature", "properties": { "photo_group": "logger-photos", "description": "S3T, PB8", "filename": "IMG_7383.JPG", "relative_path": "biochar_app/data-raw/field-mapping/logger-photos/2026-05-31/IMG_7383.JPG", "pakbus_id": "PB8", "altitude_m": 1401.643098, "datetime_original": "2026:05:31 11:41:12", "include_in_map": "TRUE", "notes": "", "feature_id": "S3T" }, "geometry": { "type": "Point", "coordinates": [ -108.696938888888994, 39.1797527777778 ] } },
{ "type": "Feature", "properties": { "photo_group": "logger-photos", "description": "S3M, PB9", "filename": "IMG_7384.JPG", "relative_path": "biochar_app/data-raw/field-mapping/logger-photos/2026-05-31/IMG_7384.JPG", "pakbus_id": "PB9", "altitude_m": 1401.688196, "datetime_original": "2026:05:31 11:41:53", "include_in_map": "TRUE", "notes": "", "feature_id": "S3M" }, "geometry": { "type": "Point", "coordinates": [ -108.696938888888994, 39.179427777777803 ] } },
{ "type": "Feature", "properties": { "photo_group": "logger-photos", "description": "S3B, PB10", "filename": "IMG_7385.JPG", "relative_path": "biochar_app/data-raw/field-mapping/logger-photos/2026-05-31/IMG_7385.JPG", "pakbus_id": "PB10", "altitude_m": 1401.726356, "datetime_original": "2026:05:31 11:42:38", "include_in_map": "TRUE", "notes": "", "feature_id": "S3B" }, "geometry": { "type": "Point", "coordinates": [ -108.696944444444, 39.1791 ] } },
{ "type": "Feature", "properties": { "photo_group": "logger-photos", "description": "S4T, PB11", "filename": "IMG_7386.JPG", "relative_path": "biochar_app/data-raw/field-mapping/logger-photos/2026-05-31/IMG_7386.JPG", "pakbus_id": "PB11", "altitude_m": 1401.66092, "datetime_original": "2026:05:31 11:44:18", "include_in_map": "TRUE", "notes": "", "feature_id": "S4T" }, "geometry": { "type": "Point", "coordinates": [ -108.696769444444001, 39.179747222222197 ] } },
{ "type": "Feature", "properties": { "photo_group": "logger-photos", "description": "S4M, PB12", "filename": "IMG_7387.JPG", "relative_path": "biochar_app/data-raw/field-mapping/logger-photos/2026-05-31/IMG_7387.JPG", "pakbus_id": "PB12", "altitude_m": 1401.746293, "datetime_original": "2026:05:31 11:44:59", "include_in_map": "TRUE", "notes": "", "feature_id": "S4M" }, "geometry": { "type": "Point", "coordinates": [ -108.696769444444001, 39.179425 ] } },
{ "type": "Feature", "properties": { "photo_group": "logger-photos", "description": "S4B, PB13", "filename": "IMG_7388.JPG", "relative_path": "biochar_app/data-raw/field-mapping/logger-photos/2026-05-31/IMG_7388.JPG", "pakbus_id": "PB13", "altitude_m": 1401.58042, "datetime_original": "2026:05:31 11:45:38", "include_in_map": "TRUE", "notes": "", "feature_id": "S4B" }, "geometry": { "type": "Point", "coordinates": [ -108.696777777777996, 39.1791027777778 ] } },
{ "type": "Feature", "properties": { "photo_group": "other-photos", "description": "Field\\nNW corner", "filename": "IMG_7372.JPG", "relative_path": "biochar_app/data-raw/field-mapping/other-photos/2026-05-31/IMG_7372.JPG", "pakbus_id": "", "altitude_m": 1402.05663, "datetime_original": "2026:05:31 11:32:46", "include_in_map": "TRUE", "notes": "", "feature_id": "field_nw" }, "geometry": { "type": "Point", "coordinates": [ -108.697302777778006, 39.1798944444444 ] } },
{ "type": "Feature", "properties": { "photo_group": "other-photos", "description": "main diversion junction", "filename": "IMG_7373.JPG", "relative_path": "biochar_app/data-raw/field-mapping/other-photos/2026-05-31/IMG_7373.JPG", "pakbus_id": "", "altitude_m": 1402.158247, "datetime_original": "2026:05:31 11:33:19", "include_in_map": "FALSE", "notes": "" }, "geometry": { "type": "Point", "coordinates": [ -108.696991666667003, 39.1799055555556 ] } },
{ "type": "Feature", "properties": { "photo_group": "other-photos", "description": "Gated pipe w/\\nflow meter", "filename": "IMG_7374.JPG", "relative_path": "biochar_app/data-raw/field-mapping/other-photos/2026-05-31/IMG_7374.JPG", "pakbus_id": "", "altitude_m": 1402.215976, "datetime_original": "2026:05:31 11:33:26", "include_in_map": "TRUE", "notes": "" }, "geometry": { "type": "Point", "coordinates": [ -108.696997222221995, 39.1799055555556 ] } },
{ "type": "Feature", "properties": { "photo_group": "other-photos", "description": "main valve and meter\\nnorth side", "filename": "IMG_7375.JPG", "relative_path": "biochar_app/data-raw/field-mapping/other-photos/2026-05-31/IMG_7375.JPG", "pakbus_id": "", "altitude_m": 1402.018445, "datetime_original": "2026:05:31 11:33:37", "include_in_map": "FALSE", "notes": "" }, "geometry": { "type": "Point", "coordinates": [ -108.696997222221995, 39.179919444444401 ] } },
{ "type": "Feature", "properties": { "photo_group": "other-photos", "description": "Field\\nNE corner", "filename": "IMG_7376.JPG", "relative_path": "biochar_app/data-raw/field-mapping/other-photos/2026-05-31/IMG_7376.JPG", "pakbus_id": "", "altitude_m": 1402.343905, "datetime_original": "2026:05:31 11:34:13", "include_in_map": "TRUE", "notes": "", "feature_id": "field_ne" }, "geometry": { "type": "Point", "coordinates": [ -108.696694444444006, 39.179897222222202 ] } },
{ "type": "Feature", "properties": { "photo_group": "other-photos", "description": "Field\\nSE corner", "filename": "IMG_7389.JPG", "relative_path": "biochar_app/data-raw/field-mapping/other-photos/2026-05-31/IMG_7389.JPG", "pakbus_id": "", "altitude_m": 1401.85896, "datetime_original": "2026:05:31 11:46:05", "include_in_map": "TRUE", "notes": "", "feature_id": "field_se" }, "geometry": { "type": "Point", "coordinates": [ -108.696722222221993, 39.1789722222222 ] } },
{ "type": "Feature", "properties": { "photo_group": "other-photos", "description": "Field\\nsouth side looking west", "filename": "IMG_7390.JPG", "relative_path": "biochar_app/data-raw/field-mapping/other-photos/2026-05-31/IMG_7390.JPG", "pakbus_id": "", "altitude_m": 1401.658892, "datetime_original": "2026:05:31 11:46:21", "include_in_map": "FALSE", "notes": "", "feature_id": null }, "geometry": { "type": "Point", "coordinates": [ -108.696822222221996, 39.178936111111099 ] } },
{ "type": "Feature", "properties": { "photo_group": "other-photos", "description": "Field\\nsouth side looking east", "filename": "IMG_7391.JPG", "relative_path": "biochar_app/data-raw/field-mapping/other-photos/2026-05-31/IMG_7391.JPG", "pakbus_id": "", "altitude_m": 1401.272534, "datetime_original": "2026:05:31 11:47:15", "include_in_map": "FALSE", "notes": "" }, "geometry": { "type": "Point", "coordinates": [ -108.697311111111006, 39.178936111111099 ] } },
{ "type": "Feature", "properties": { "photo_group": "other-photos", "description": "Field\\nSW corner", "filename": "IMG_7392.JPG", "relative_path": "biochar_app/data-raw/field-mapping/other-photos/2026-05-31/IMG_7392.JPG", "pakbus_id": "", "altitude_m": 1401.653185, "datetime_original": "2026:05:31 11:47:18", "include_in_map": "TRUE", "notes": "", "feature_id": "field_sw" }, "geometry": { "type": "Point", "coordinates": [ -108.697311111111006, 39.178938888888901 ] } },
{ "type": "Feature", "properties": { "photo_group": null, "description": null, "filename": null, "relative_path": null, "pakbus_id": null, "altitude_m": null, "datetime_original": null, "include_in_map": null, "notes": null }, "geometry": null },
{ "type": "Feature", "properties": { "photo_group": null, "description": null, "filename": null, "relative_path": null, "pakbus_id": null, "altitude_m": null, "datetime_original": null, "include_in_map": null, "notes": null }, "geometry": null },
{ "type": "Feature", "properties": { "photo_group": null, "description": null, "filename": null, "relative_path": null, "pakbus_id": null, "altitude_m": null, "datetime_original": null, "include_in_map": null, "notes": null, "feature_id": null }, "geometry": null }
]
}
